     2.10           G: GLONASS NAV DATA                     RINEX VERSION / TYPE
teqc  2015Jun23                         20220529 01:25:36UTCPGM / RUN BY / DATE
Linux 2.4.21-27.ELsmp|Opteron|gcc -static|Linux x86_64|=+   COMMENT
  2022     5    18   -0.000000000000D+00                    CORR TO SYSTEM TIME
                                                            END OF HEADER
18 22  5 19 15 45  0.0 1.173755154014D-04 9.094947017729D-13 5.580000000000D+04
    1.034790917969D+04 4.457960128784D-01 0.000000000000D+00 0.000000000000D+00
    2.284773339844D+04 5.400819778442D-01-1.862645149231D-09-3.000000000000D+00
    4.810196289062D+03-3.524807929993D+00 0.000000000000D+00 0.000000000000D+00
13 22  5 19 15 45  0.0-2.251286059618D-05-0.000000000000D+00 5.580000000000D+04
   -1.786293847656D+04 7.221736907959D-01-1.862645149231D-09 0.000000000000D+00
    1.677375878906D+04-6.648788452148D-01-0.000000000000D+00-2.000000000000D+00
    7.074725585938D+03 3.392538070679D+00-3.725290298462D-09 0.000000000000D+00
14 22  5 19 15 45  0.0 2.562720328569D-05-0.000000000000D+00 5.580000000000D+04
   -9.718562011719D+03-8.987140655518D-01-3.725290298462D-09 0.000000000000D+00
    2.062754589844D+04 1.289859771729D+00-0.000000000000D+00-7.000000000000D+00
   -1.144099023438D+04 3.083974838257D+00-9.313225746155D-10 0.000000000000D+00
17 22  5 19 15 45  0.0 5.274442955852D-04 2.728484105319D-12 5.580000000000D+04
    2.398805664062D+03-3.713197708130D-01-2.793967723846D-09 0.000000000000D+00
    2.245188671875D+04-1.592187881470D+00-9.313225746155D-10 4.000000000000D+00
   -1.183220117188D+04-3.098961830139D+00 0.000000000000D+00 0.000000000000D+00
24 22  5 19 15 45  0.0 9.451154619455D-05 1.818989403546D-12 5.580000000000D+04
   -7.717064941406D+03-9.642219543457D-01-4.656612873077D-09 0.000000000000D+00
    9.607285644531D+03-2.904904365540D+00 0.000000000000D+00 2.000000000000D+00
   -2.232240576172D+04-9.173126220703D-01 0.000000000000D+00 0.000000000000D+00
 3 22  5 19 15 45  0.0 5.693361163139D-05 9.094947017729D-13 5.604000000000D+04
   -1.490399414062D+03-3.099798202515D+00 1.862645149231D-09 0.000000000000D+00
    1.085709423828D+04-5.416917800903D-01-9.313225746155D-10 5.000000000000D+00
    2.308418017578D+04 4.995250701904D-02-1.862645149231D-09 0.000000000000D+00
15 22  5 19 15 45  0.0 9.601376950741D-05-9.094947017729D-13 5.634000000000D+04
    3.806401855469D+03-1.903320312500D+00-2.793967723846D-09 0.000000000000D+00
    1.204783251953D+04 2.365707397461D+00-0.000000000000D+00 0.000000000000D+00
   -2.214026025391D+04 9.588413238525D-01 9.313225746155D-10 0.000000000000D+00
19 22  5 19 15 45  0.0-1.895651221275D-04-9.094947017729D-13 5.757000000000D+04
    1.258378710938D+04 9.222126007080D-01 2.793967723846D-09 0.000000000000D+00
    1.261973535156D+04 2.333750724792D+00-1.862645149231D-09 3.000000000000D+00
    1.824331005859D+04-2.249436378479D+00 0.000000000000D+00 0.000000000000D+00
19 22  5 19 16 15  0.0-1.895679160953D-04-9.094947017729D-13 5.760000000000D+04
    1.434050000000D+04 9.871292114258D-01 1.862645149231D-09 0.000000000000D+00
    1.617078125000D+04 1.589040756226D+00-1.862645149231D-09 3.000000000000D+00
    1.354107324219D+04-2.941322326660D+00 0.000000000000D+00 0.000000000000D+00
15 22  5 19 16 15  0.0 9.601283818483D-05-9.094947017729D-13 5.760000000000D+04
    8.579604492188D+02-1.358234405518D+00-3.725290298462D-09 0.000000000000D+00
    1.630570458984D+04 2.317377090454D+00 0.000000000000D+00 0.000000000000D+00
   -1.957934375000D+04 1.868080139160D+00 0.000000000000D+00 0.000000000000D+00
13 22  5 19 16 15  0.0-2.251379191875D-05-0.000000000000D+00 5.760000000000D+04
   -1.625387353516D+04 1.022789001465D+00-9.313225746155D-10 0.000000000000D+00
    1.488472460938D+04-1.436652183533D+00-0.000000000000D+00-2.000000000000D+00
    1.282865771484D+04 2.959153175354D+00-3.725290298462D-09 0.000000000000D+00
14 22  5 19 16 15  0.0 2.562720328569D-05-0.000000000000D+00 5.760000000000D+04
   -1.076477246094D+04-2.831296920776D-01-3.725290298462D-09 0.000000000000D+00
    2.246538134766D+04 7.148952484131D-01-0.000000000000D+00-7.000000000000D+00
   -5.519424316406D+03 3.452819824219D+00-1.862645149231D-09 0.000000000000D+00
17 22  5 19 16 15  0.0 5.274498835206D-04 2.728484105319D-12 5.760000000000D+04
    1.243373046875D+03-9.294357299805D-01-3.725290298462D-09 0.000000000000D+00
    1.906570654297D+04-2.126596450806D+00-0.000000000000D+00 4.000000000000D+00
   -1.687987646484D+04-2.473126411438D+00 0.000000000000D+00 0.000000000000D+00
18 22  5 19 16 15  0.0 1.173783093691D-04 9.094947017729D-13 5.760000000000D+04
    1.089036474609D+04 1.164770126343D-01-9.313225746155D-10 0.000000000000D+00
    2.304086816406D+04-3.121433258057D-01-1.862645149231D-09-3.000000000000D+00
   -1.638088378906D+03-3.593587875366D+00 0.000000000000D+00 0.000000000000D+00
 3 22  5 19 16 15  0.0 5.693547427654D-05 9.094947017729D-13 5.841000000000D+04
   -7.060865722656D+03-3.038228034973D+00 9.313225746155D-10 0.000000000000D+00
    1.029670605469D+04-8.061885833740D-02-9.313225746155D-10 5.000000000000D+00
    2.228513964844D+04-9.322214126587D-01-2.793967723846D-09 0.000000000000D+00
19 22  5 19 16 45  0.0-1.895697787404D-04-9.094947017729D-13 5.940000000000D+04
    1.597643359375D+04 7.852659225464D-01 0.000000000000D+00 0.000000000000D+00
    1.829315576172D+04 7.660913467407D-01-1.862645149231D-09 3.000000000000D+00
    7.791439941406D+03-3.405652999878D+00 0.000000000000D+00 0.000000000000D+00
15 22  5 19 16 45  0.0 9.601190686226D-05-9.094947017729D-13 5.940000000000D+04
   -1.064244140625D+03-7.815160751343D-01-3.725290298462D-09 0.000000000000D+00
    2.021626074219D+04 1.980396270752D+00 0.000000000000D+00 0.000000000000D+00
   -1.550232519531D+04 2.632442474365D+00-0.000000000000D+00 0.000000000000D+00
13 22  5 19 16 45  0.0-2.251472324133D-05-0.000000000000D+00 5.940000000000D+04
   -1.433788525391D+04 1.063298225403D+00-0.000000000000D+00 0.000000000000D+00
    1.162704980469D+04-2.166453361511D+00-0.000000000000D+00-2.000000000000D+00
    1.758983300781D+04 2.296630859375D+00-3.725290298462D-09 0.000000000000D+00
14 22  5 19 16 45  0.0 2.562720328569D-05-0.000000000000D+00 5.940000000000D+04
   -1.083396728516D+04 1.732740402222D-01-2.793967723846D-09 0.000000000000D+00
    2.308983398438D+04-4.453849792480D-02 0.000000000000D+00-7.000000000000D+00
    8.286206054688D+02 3.554797172546D+00-2.793967723846D-09 0.000000000000D+00
17 22  5 19 16 45  0.0 5.274554714561D-04 2.728484105319D-12 5.940000000000D+04
   -9.757602539062D+02-1.534799575806D+00-3.725290298462D-09 0.000000000000D+00
    1.496696826172D+04-2.377841949463D+00 9.313225746155D-10 4.000000000000D+00
   -2.062046337891D+04-1.656132698059D+00 0.000000000000D+00 0.000000000000D+00
18 22  5 19 16 45  0.0 1.173811033368D-04 9.094947017729D-13 5.940000000000D+04
    1.063770996094D+04-4.273529052734D-01-1.862645149231D-09 0.000000000000D+00
    2.180480126953D+04-1.030537605286D+00-9.313225746155D-10-3.000000000000D+00
   -7.960103515625D+03-3.385386466980D+00 0.000000000000D+00 0.000000000000D+00
 3 22  5 19 16 45  0.0 5.693733692169D-05 9.094947017729D-13 5.943000000000D+04
   -1.224800097656D+04-2.678152084351D+00 0.000000000000D+00 0.000000000000D+00
    1.053584228516D+04 3.290739059448D-01-0.000000000000D+00 5.000000000000D+00
    1.977060791016D+04-1.843853950500D+00-3.725290298462D-09 0.000000000000D+00
19 22  5 19 17 15  0.0-1.895725727081D-04-9.094947017729D-13 6.120000000000D+04
    1.701089013672D+04 3.240203857422D-01-9.313225746155D-10 0.000000000000D+00
    1.895363769531D+04-1.566886901855D-02-1.862645149231D-09 3.000000000000D+00
    1.439199218750D+03-3.606545448303D+00 0.000000000000D+00 0.000000000000D+00
15 22  5 19 17 15  0.0 9.601097553968D-05-0.000000000000D+00 6.120000000000D+04
   -2.001539062500D+03-2.809486389160D-01-3.725290298462D-09 0.000000000000D+00
    2.327699560547D+04 1.381290435791D+00 9.313225746155D-10 0.000000000000D+00
   -1.022528125000D+04 3.192789077759D+00-9.313225746155D-10 0.000000000000D+00
 3 22  5 19 17 15  0.0 5.693919956684D-05 0.000000000000D+00 6.120000000000D+04
   -1.655077490234D+04-2.066956520081D+00-0.000000000000D+00 0.000000000000D+00
    1.139153564453D+04 5.899372100830D-01 0.000000000000D+00 5.000000000000D+00
    1.573195751953D+04-2.614680290222D+00-3.725290298462D-09 0.000000000000D+00
14 22  5 19 17 15  0.0 2.562720328569D-05 0.000000000000D+00 6.120000000000D+04
   -1.027549804688D+04 4.068908691406D-01-1.862645149231D-09 0.000000000000D+00
    2.225186376953D+04-8.920383453369D-01 0.000000000000D+00-7.000000000000D+00
    7.112683105469D+03 3.382219314575D+00-3.725290298462D-09 0.000000000000D+00
17 22  5 19 17 15  0.0 5.274610593915D-04 2.728484105319D-12 6.120000000000D+04
   -4.242255371094D+03-2.074315071106D+00-3.725290298462D-09 0.000000000000D+00
    1.068394189453D+04-2.333242416382D+00 2.793967723846D-09 4.000000000000D+00
   -2.276515429688D+04-7.114667892456D-01 0.000000000000D+00 0.000000000000D+00
18 22  5 19 17 15  0.0 1.173838973045D-04 9.094947017729D-13 6.120000000000D+04
    9.270570800781D+03-1.105811119080D+00-2.793967723846D-09 0.000000000000D+00
    1.946559863281D+04-1.525779724121D+00 0.000000000000D+00-3.000000000000D+00
   -1.366836767578D+04-2.916005134583D+00 0.000000000000D+00 0.000000000000D+00
 4 22  5 19 17 15  0.0 1.423079520464D-04 1.818989403546D-12 6.273000000000D+04
    7.500737304688D+02-3.075908660889D+00 9.313225746155D-10 0.000000000000D+00
    1.089394531250D+04 6.917381286621D-01-1.862645149231D-09 6.000000000000D+00
    2.308564892578D+04-2.274141311646D-01-1.862645149231D-09 0.000000000000D+00
19 22  5 19 17 45  0.0-1.895753666759D-04-9.094947017729D-13 6.300000000000D+04
    1.701847460938D+04-3.433351516724D-01-1.862645149231D-09 0.000000000000D+00
    1.832737939453D+04-6.473321914673D-01-9.313225746155D-10 3.000000000000D+00
   -5.024347656250D+03-3.528539657593D+00 0.000000000000D+00 0.000000000000D+00
